[{"OBJECT_NAME":"STARLINK-3364","OBJECT_ID":"2022-005BA","EPOCH":"2026-03-09T21:35:22.207776","MEAN_MOTION":15.08831715,"ECCENTRICITY":0.00011998,"INCLINATION":53.2179,"RA_OF_ASC_NODE":307.7954,"ARG_OF_PERICENTER":95.4715,"MEAN_ANOMALY":264.6414,"EPHEMERIS_TYPE":0,"CLASSIFICATION_TYPE":"U","NORAD_CAT_ID":51152,"ELEMENT_SET_NO":999,"REV_AT_EPOCH":22863,"BSTAR":-4.0805639e-5,"MEAN_MOTION_DOT":-9.37e-6,"MEAN_MOTION_DDOT":0},{"OBJECT_NAME":"FENGYUN 1C DEB","OBJECT_ID":"1999-025DVA","EPOCH":"2026-03-08T04:27:49.439232","MEAN_MOTION":15.15496966,"ECCENTRICITY":0.00338373,"INCLINATION":98.8203,"RA_OF_ASC_NODE":206.4896,"ARG_OF_PERICENTER":4.2711,"MEAN_ANOMALY":355.88,"EPHEMERIS_TYPE":0,"CLASSIFICATION_TYPE":"U","NORAD_CAT_ID":36225,"ELEMENT_SET_NO":999,"REV_AT_EPOCH":68062,"BSTAR":0.0036229129,"MEAN_MOTION_DOT":0.00070122,"MEAN_MOTION_DDOT":0}]
